{"type": "FeatureCollection", "features": [ {"type": "Feature", "properties": {"norad_id": 30173, "name": "FENGYUN 1C DEB", "group": "fengyun-1c-debris", "lat": -57.631951605891835, "lon": -122.36695280021716, "alt_km": 803.0654061420482, "timestamp": "2025-12-27T07:26:25.496282+00:00", "meta": {"OBJECT_NAME": "FENGYUN 1C DEB", "OBJECT_ID": "1999-025UE", "EPOCH": "2025-12-26T03:25:11.396064", "MEAN_MOTION": 14.11458936, "ECCENTRICITY": 0.00815773, "INCLINATION": 98.975, "RA_OF_ASC_NODE": 70.9039, "ARG_OF_PERICENTER": 250.693, "MEAN_ANOMALY": 178.9425, "EPHEMERIS_TYPE": 0, "CLASSIFICATION_TYPE": "U", "NORAD_CAT_ID": 30173, "ELEMENT_SET_NO": 999, "REV_AT_EPOCH": 96738, "BSTAR": 0.0016692559, "MEAN_MOTION_DOT": 3.076e-05, "MEAN_MOTION_DDOT": 0}, "tle": {"line1": "1 30173U 99025UE  25360.14249301  .00003076  00000+0  16693-2 0  9991", "line2": "2 30173  98.9750  70.9039 0081577 250.6930 178.9425 14.11458936967386"}}, "geometry": {"type": "Point", "coordinates": [-122.36695280021716, -57.631951605891835]}}, {"type": "Feature", "properties": {"norad_id": 30174, "name": "FENGYUN 1C DEB", "group": "fengyun-1c-debris", "lat": -40.26250971566722, "lon": 159.04049042512597, "alt_km": 619.1037603983214, "timestamp": "2025-12-27T07:26:25.496293+00:00", "meta": {"OBJECT_NAME": "FENGYUN 1C DEB", "OBJECT_ID": "1999-025UF", "EPOCH": "2025-12-27T00:02:59.292096", "MEAN_MOTION": 14.81955582, "ECCENTRICITY": 0.00190621, "INCLINATION": 98.776, "RA_OF_ASC_NODE": 151.1852, "ARG_OF_PERICENTER": 358.4915, "MEAN_ANOMALY": 118.9805, "EPHEMERIS_TYPE": 0, "CLASSIFICATION_TYPE": "U", "NORAD_CAT_ID": 30174, "ELEMENT_SET_NO": 999, "REV_AT_EPOCH": 98579, "BSTAR": 0.0053898575, "MEAN_MOTION_DOT": 0.00043046, "MEAN_MOTION_DDOT": 0}, "tle": {"line1": "1 30174U 99025UF  25361.00207514  .00043046  00000+0  53899-2 0  9998", "line2": "2 30174  98.7760 151.1852 0019062 358.4915 118.9805 14.81955582985798"}}, "geometry": {"type": "Point", "coordinates": [159.04049042512597, -40.26250971566722]}}, {"type": "Feature", "properties": {"norad_id": 30175, "name": "FENGYUN 1C DEB", "group": "fengyun-1c-debris", "lat": -36.64854374576152, "lon": 64.41437053098174, "alt_km": 1048.0412622909225, "timestamp": "2025-12-27T07:26:25.496302+00:00", "meta": {"OBJECT_NAME": "FENGYUN 1C DEB", "OBJECT_ID": "1999-025UG", "EPOCH": "2025-12-26T02:26:39.084864", "MEAN_MOTION": 13.83879828, "ECCENTRICITY": 0.0146761, "INCLINATION": 99.3794, "RA_OF_ASC_NODE": 56.1456, "ARG_OF_PERICENTER": 177.2143, "MEAN_ANOMALY": 248.891, "EPHEMERIS_TYPE": 0, "CLASSIFICATION_TYPE": "U", "NORAD_CAT_ID": 30175, "ELEMENT_SET_NO": 999, "REV_AT_EPOCH": 95525, "BSTAR": 0.00035987099, "MEAN_MOTION_DOT": 3.89e-06, "MEAN_MOTION_DDOT": 0}, "tle": {"line1": "1 30175U 99025UG  25360.10184126  .00000389  00000+0  35987-3 0  9994", "line2": "2 30175  99.3794  56.1456 0146761 177.2143 248.8910 13.83879828955251"}}, "geometry": {"type": "Point", "coordinates": [64.41437053098174, -36.64854374576152]}}, {"type": "Feature", "properties": {"norad_id": 30177, "name": "FENGYUN 1C DEB", "group": "fengyun-1c-debris", "lat": 76.17525370274132, "lon": 161.4418933457631, "alt_km": 683.2768035479621, "timestamp": "2025-12-27T07:26:25.496313+00:00", "meta": {"OBJECT_NAME": "FENGYUN 1C DEB", "OBJECT_ID": "1999-025UJ", "EPOCH": "2025-12-26T08:38:58.189344", "MEAN_MOTION": 13.62856833, "ECCENTRICITY": 0.04521863, "INCLINATION": 98.6281, "RA_OF_ASC_NODE": 302.5007, "ARG_OF_PERICENTER": 102.506, "MEAN_ANOMALY": 21.6228, "EPHEMERIS_TYPE": 0, "CLASSIFICATION_TYPE": "U", "NORAD_CAT_ID": 30177, "ELEMENT_SET_NO": 999, "REV_AT_EPOCH": 93648, "BSTAR": 0.0013166551, "MEAN_MOTION_DOT": 2.021e-05, "MEAN_MOTION_DDOT": 0}, "tle": {"line1": "1 30177U 99025UJ  25360.36039571  .00002021  00000+0  13167-2 0  9997", "line2": "2 30177  98.6281 302.5007 0452186 102.5060  21.6228 13.62856833936487"}}, "geometry": {"type": "Point", "coordinates": [161.4418933457631, 76.17525370274132]}}, {"type": "Feature", "properties": {"norad_id": 30178, "name": "FENGYUN 1C DEB", "group": "fengyun-1c-debris", "lat": 38.03050692500143, "lon": 68.13665144575316, "alt_km": 892.1839616365924, "timestamp": "2025-12-27T07:26:25.496323+00:00", "meta": {"OBJECT_NAME": "FENGYUN 1C DEB", "OBJECT_ID": "1999-025UK", "EPOCH": "2025-12-26T10:26:44.863008", "MEAN_MOTION": 13.58732946, "ECCENTRICITY": 0.02813, "INCLINATION": 102.2607, "RA_OF_ASC_NODE": 237.2534, "ARG_OF_PERICENTER": 95.6847, "MEAN_ANOMALY": 85.8927, "EPHEMERIS_TYPE": 0, "CLASSIFICATION_TYPE": "U", "NORAD_CAT_ID": 30178, "ELEMENT_SET_NO": 999, "REV_AT_EPOCH": 93357, "BSTAR": 0.0019984, "MEAN_MOTION_DOT": 1.831e-05, "MEAN_MOTION_DDOT": 0}, "tle": {"line1": "1 30178U 99025UK  25360.43524147  .00001831  00000+0  19984-2 0  9995", "line2": "2 30178 102.2607 237.2534 0281300  95.6847  85.8927 13.58732946933572"}}, "geometry": {"type": "Point", "coordinates": [68.13665144575316, 38.03050692500143]}}, {"type": "Feature", "properties": {"norad_id": 30181, "name": "FENGYUN 1C DEB", "group": "fengyun-1c-debris", "lat": -22.115210354056536, "lon": -98.89684614598836, "alt_km": 810.6502200989025, "timestamp": "2025-12-27T07:26:25.496333+00:00", "meta": {"OBJECT_NAME": "FENGYUN 1C DEB", "OBJECT_ID": "1999-025UN", "EPOCH": "2025-12-26T19:19:06.764160", "MEAN_MOTION": 14.29346228, "ECCENTRICITY": 0.00402313, "INCLINATION": 98.842, "RA_OF_ASC_NODE": 84.2175, "ARG_OF_PERICENTER": 317.3202, "MEAN_ANOMALY": 167.901, "EPHEMERIS_TYPE": 0, "CLASSIFICATION_TYPE": "U", "NORAD_CAT_ID": 30181, "ELEMENT_SET_NO": 999, "REV_AT_EPOCH": 97712, "BSTAR": 0.0015052666, "MEAN_MOTION_DOT": 3.823e-05, "MEAN_MOTION_DDOT": 0}, "tle": {"line1": "1 30181U 99025UN  25360.80493940  .00003823  00000+0  15053-2 0  9992", "line2": "2 30181  98.8420  84.2175 0040231 317.3202 167.9010 14.29346228977122"}}, "geometry": {"type": "Point", "coordinates": [-98.89684614598836, -22.115210354056536]}}, {"type": "Feature", "properties": {"norad_id": 30182, "name": "FENGYUN 1C DEB", "group": "fengyun-1c-debris", "lat": 33.19361621344251, "lon": -121.93802894994073, "alt_km": 955.8504005091536, "timestamp": "2025-12-27T07:26:25.496343+00:00", "meta": {"OBJECT_NAME": "FENGYUN 1C DEB", "OBJECT_ID": "1999-025UP", "EPOCH": "2025-12-26T22:44:23.204256", "MEAN_MOTION": 13.96462187, "ECCENTRICITY": 0.00743656, "INCLINATION": 99.0637, "RA_OF_ASC_NODE": 51.7107, "ARG_OF_PERICENTER": 343.7575, "MEAN_ANOMALY": 140.7155, "EPHEMERIS_TYPE": 0, "CLASSIFICATION_TYPE": "U", "NORAD_CAT_ID": 30182, "ELEMENT_SET_NO": 999, "REV_AT_EPOCH": 96506, "BSTAR": 0.00024745246, "MEAN_MOTION_DOT": 3.06e-06, "MEAN_MOTION_DDOT": 0}, "tle": {"line1": "1 30182U 99025UP  25360.94749079  .00000306  00000+0  24745-3 0  9997", "line2": "2 30182  99.0637  51.7107 0074365 343.7575 140.7155 13.96462187965066"}}, "geometry": {"type": "Point", "coordinates": [-121.93802894994073, 33.19361621344251]}}, {"type": "Feature", "properties": {"norad_id": 30183, "name": "FENGYUN 1C DEB", "group": "fengyun-1c-debris", "lat": 74.77944779562424, "lon": 8.626581986372443, "alt_km": 856.2934327121411, "timestamp": "2025-12-27T07:26:25.496353+00:00", "meta": {"OBJECT_NAME": "FENGYUN 1C DEB", "OBJECT_ID": "1999-025UQ", "EPOCH": "2025-12-26T14:41:46.132800", "MEAN_MOTION": 14.12689216, "ECCENTRICITY": 0.002656, "INCLINATION": 98.7872, "RA_OF_ASC_NODE": 42.588, "ARG_OF_PERICENTER": 213.3268, "MEAN_ANOMALY": 278.2551, "EPHEMERIS_TYPE": 0, "CLASSIFICATION_TYPE": "U", "NORAD_CAT_ID": 30183, "ELEMENT_SET_NO": 999, "REV_AT_EPOCH": 97339, "BSTAR": 0.00052914, "MEAN_MOTION_DOT": 9.41e-06, "MEAN_MOTION_DDOT": 0}, "tle": {"line1": "1 30183U 99025UQ  25360.61233950  .00000941  00000+0  52914-3 0  9992", "line2": "2 30183  98.7872  42.5880 0026560 213.3268 278.2551 14.12689216973390"}}, "geometry": {"type": "Point", "coordinates": [8.626581986372443, 74.77944779562424]}}, {"type": "Feature", "properties": {"norad_id": 30191, "name": "FENGYUN 1C DEB", "group": "fengyun-1c-debris", "lat": -10.236437065667808, "lon": -107.81074170426245, "alt_km": 578.1305487799182, "timestamp": "2025-12-27T07:26:25.496363+00:00", "meta": {"OBJECT_NAME": "FENGYUN 1C DEB", "OBJECT_ID": "1999-025UY", "EPOCH": "2025-12-26T23:15:54.616896", "MEAN_MOTION": 14.78288617, "ECCENTRICITY": 0.00971158, "INCLINATION": 98.7735, "RA_OF_ASC_NODE": 73.4165, "ARG_OF_PERICENTER": 218.3667, "MEAN_ANOMALY": 320.6384, "EPHEMERIS_TYPE": 0, "CLASSIFICATION_TYPE": "U", "NORAD_CAT_ID": 30191, "ELEMENT_SET_NO": 999, "REV_AT_EPOCH": 485, "BSTAR": 0.0016736108, "MEAN_MOTION_DOT": 0.00013111, "MEAN_MOTION_DDOT": 0}, "tle": {"line1": "1 30191U 99025UY  25360.96938214  .00013111  00000+0  16736-2 0  9998", "line2": "2 30191  98.7735  73.4165 0097115 218.3667 320.6384 14.78288617  4852"}}, "geometry": {"type": "Point", "coordinates": [-107.81074170426245, -10.236437065667808]}}, {"type": "Feature", "properties": {"norad_id": 30193, "name": "FENGYUN 1C DEB", "group": "fengyun-1c-debris", "lat": -8.769563436139812, "lon": 88.70850835032857, "alt_km": 743.8145787420617, "timestamp": "2025-12-27T07:26:25.496374+00:00", "meta": {"OBJECT_NAME": "FENGYUN 1C DEB", "OBJECT_ID": "1999-025VA", "EPOCH": "2025-12-27T00:03:05.277024", "MEAN_MOTION": 14.49197237, "ECCENTRICITY": 0.01076575, "INCLINATION": 98.7564, "RA_OF_ASC_NODE": 269.7515, "ARG_OF_PERICENTER": 90.4088, "MEAN_ANOMALY": 291.8473, "EPHEMERIS_TYPE": 0, "CLASSIFICATION_TYPE": "U", "NORAD_CAT_ID": 30193, "ELEMENT_SET_NO": 999, "REV_AT_EPOCH": 99373, "BSTAR": 0.00085528172, "MEAN_MOTION_DOT": 3.456e-05, "MEAN_MOTION_DDOT": 0}, "tle": {"line1": "1 30193U 99025VA  25361.00214441  .00003456  00000+0  85528-3 0  9992", "line2": "2 30193  98.7564 269.7515 0107657  90.4088 291.8473 14.49197237993739"}}, "geometry": {"type": "Point", "coordinates": [88.70850835032857, -8.769563436139812]}}]}